GAOFEN-11 01            
1 43585U 18063A   26190.30159480  .00015828  00000+0  22932-3 0  9995
2 43585  97.1278 257.1262 0002526 226.0436 134.0611 15.55947221443787
ICESAT-2                
1 43613U 18070A   26190.28708860  .00007013  00000+0  25453-3 0  9992
2 43613  92.0084 296.9510 0005867  77.9104 282.2803 15.28282480435836
HYSIS                   
1 43719U 18096A   26190.33980109  .00000528  00000+0  79185-4 0  9997
2 43719  97.9827 256.9134 0001859  87.2064 272.9359 14.78662311410694
KAZSTSAT                
1 43783U 18099AB  26190.31282797  .00001243  00000+0  10455-3 0  9996
2 43783  97.4316 221.2422 0007766   3.5087 356.6191 14.99945615414622
SAUDISAT 5A             
1 43831U 18102A   26190.29718905  .00003773  00000+0  13941-3 0  9990
2 43831  97.3057 251.4534 0010869  62.2028 298.0312 15.28281537419056
SAUDISAT 5B             
1 43833U 18102C   26190.31240135  .00003734  00000+0  13696-3 0  9994
2 43833  97.3166 254.5781 0011641  63.6266 296.6167 15.28527104419173
GAOFEN-10R              
1 44622U 19066A   26190.28400922  .00000780  00000+0  10254-3 0  9994
2 44622  98.0512 144.0249 0007100  68.3820 291.8149 14.83049096365657
CARTOSAT-3              
1 44804U 19081A   26190.28743740  .00002797  00000+0  13549-3 0  9991
2 44804  97.4296 251.7975 0013427  79.5754 280.6994 15.19298390366829
GAOFEN-12 01            
1 44819U 19082A   26190.31600561  .00000264  00000+0  41178-4 0  9992
2 44819  97.8106 196.1117 0001286  52.2758 307.8571 14.80476672357361
CSG-1                   
1 44873U 19092A   26190.32983934  .00000278  00000+0  41535-4 0  9994
2 44873  97.8893  13.6122 0001497  90.8631 269.2753 14.82148319354754
NEMO-HD                 
1 46277U 20061F   26190.34762385  .00007912  00000+0  16938-3 0  9999
2 46277  97.1909 252.0816 0001139  80.8812 279.2567 15.45052973325401
SENTINEL-6A             
1 46984U 20086A   26190.10289723 -.00000071  00000+0 -41417-4 0  9997
2 46984  66.0415  89.5347 0007817 270.0066  90.0053 12.80930079263136
CAS500-1                
1 47932U 21022A   26190.31172155  .00004397  00000+0  20641-3 0  9993
2 47932  97.3875  85.1145 0004550 188.9009 171.2147 15.20140657294121
GAOFEN-12 02            
1 48079U 21026A   26190.26185193  .00000246  00000+0  39217-4 0  9999
2 48079  97.9930 188.3530 0005450 148.1761 211.9781 14.80313204285029
PLEIADES NEO 3          
1 48268U 21034A   26190.26873396  .00000065  00000+0  14813-4 0  9991
2 48268  97.8936 264.7177 0001345  93.5930 266.5437 14.81673238280925
PLEIADES NEO 4          
1 49070U 21073E   26190.30248916  .00000909  00000+0  12212-3 0  9992
2 49070  97.8933 264.7475 0001323  93.3306 266.8058 14.81671901264644
LANDSAT 9               
1 49260U 21088A   26189.75885797  .00000226  00000+0  60329-4 0  9995
2 49260  98.2272 259.6744 0001172  89.8666 270.2667 14.57112192254143
CSG-2                   
1 51444U 22008A   26190.29603792 -.00000405  00000+0 -44271-4 0  9998
2 51444  97.8899  13.5734 0001561  85.3891 274.7500 14.82146548239866
GAOFEN-12 03            
1 52912U 22069A   26190.29558206  .00000042  00000+0  12158-4 0  9999
2 52912  97.8250  77.6055 0002479  78.8173 281.3317 14.80068036217885
SWOT                    
1 54754U 22173A   26190.28197265  .00000013  00000+0  10639-4 0  9994
2 54754  77.6105   5.4810 0000289  75.7094 284.4090 14.00172000182241
GAOFEN-12 04            
1 57654U 23123A   26190.31409237  .00000670  00000+0  95868-4 0  9997
2 57654  97.9107 108.0029 0003773  62.4033 297.7562 14.79768478155909
PARS 1                  
1 59065U 24039Q   26190.32172039  .00008811  00000+0  18096-3 0  9992
2 59065  97.4833 171.9468 0010496  46.0523 314.1590 15.46201256132064
RESURS-P 4              
1 59371U 24061A   26190.27203969  .00002052  00000+0  68336-4 0  9992
2 59371  97.2753 137.7884 0003213  98.6305 261.5301 15.32258076127140
LEGION 1                
1 59625U 24081A   26190.26189283  .00002241  00000+0  11741-3 0  9994
2 59625  97.5011 267.8845 0007772 294.5232  65.5190 15.16819235120888
LEGION 2                
1 59626U 24081B   26190.29219321  .00002645  00000+0  13798-3 0  9997
2 59626  97.5011 268.0114 0009919 256.7429 103.2698 15.16798049120897
ALOS-4 (DAICHI-4)       
1 60182U 24123A   26190.27447432  .00001000  00000+0  14074-3 0  9999
2 60182  97.9220 287.1334 0001606  98.2301 261.9093 14.79471217109140
LEGION 3                
1 60452U 24146A   26190.27282538  .00002034  00000+0  11879-3 0  9996
2 60452  45.0016 272.1323 0008708 303.2206  56.7838 15.15631936105377
LEGION 4                
1 60453U 24146B   26189.94345953  .00002837  00000+0  15770-3 0  9995
2 60453  45.0026   5.7695 0011483  72.6816 287.5318 15.16209060104173
SENTINEL-2C             
1 60989U 24157A   26190.20051958  .00000052  00000+0  36616-4 0  9991
2 60989  98.5685 264.6704 0000939  97.5512 262.5777 14.30814617 96134
IONOSFERA-M 1           
1 61735U 24199A   26190.27610252  .00000022  00000+0  29618-4 0  9993
2 61735  98.7145  63.2122 0002214  80.6893 279.4535 14.22758301130841
