OBJECT_NAME,OBJECT_ID,EPOCH,MEAN_MOTION,ECCENTRICITY,INCLINATION,RA_OF_ASC_NODE,ARG_OF_PERICENTER,MEAN_ANOMALY,EPHEMERIS_TYPE,CLASSIFICATION_TYPE,NORAD_CAT_ID,ELEMENT_SET_NO,REV_AT_EPOCH,BSTAR,MEAN_MOTION_DOT,MEAN_MOTION_DDOT
GAOFEN-11 01,2018-063A,2026-07-09T07:14:17.790720,15.55947221,.00025266,97.1278,257.1262,226.0436,134.0611,0,U,43585,999,44378,.22931827E-3,.15828E-3,0
ICESAT-2,2018-070A,2026-07-09T06:53:24.455040,15.28282480,.00058679,92.0084,296.9510,77.9104,282.2803,0,U,43613,999,43583,.25452918E-3,.7013E-4,0
HYSIS,2018-096A,2026-07-09T08:09:18.814176,14.78662311,.00018593,97.9827,256.9134,87.2064,272.9359,0,U,43719,999,41069,.79184857E-4,.528E-5,0
KAZSTSAT,2018-099AB,2026-07-09T07:30:28.336608,14.99945615,.0007766,97.4316,221.2422,3.5087,356.6191,0,U,43783,999,41462,.10455048E-3,.1243E-4,0
SAUDISAT 5A,2018-102A,2026-07-09T07:07:57.133920,15.28281537,.00108697,97.3057,251.4534,62.2028,298.0312,0,U,43831,999,41905,.13941496E-3,.3773E-4,0
SAUDISAT 5B,2018-102C,2026-07-09T07:29:51.476640,15.28527104,.00116418,97.3166,254.5781,63.6266,296.6167,0,U,43833,999,41917,.13695954E-3,.3734E-4,0
GAOFEN-10R,2019-066A,2026-07-09T06:48:58.396608,14.83049096,.00071007,98.0512,144.0249,68.3820,291.8149,0,U,44622,999,36565,.10254067E-3,.78E-5,0
CARTOSAT-3,2019-081A,2026-07-09T06:53:54.591360,15.19298390,.00134276,97.4296,251.7975,79.5754,280.6994,0,U,44804,999,36682,.13549353E-3,.2797E-4,0
GAOFEN-12 01,2019-082A,2026-07-09T07:35:02.884704,14.80476672,.00012863,97.8106,196.1117,52.2758,307.8571,0,U,44819,999,35736,.41178013E-4,.264E-5,0
CSG-1,2019-092A,2026-07-09T07:54:58.118976,14.82148319,.00014977,97.8893,13.6122,90.8631,269.2753,0,U,44873,999,35475,.41535421E-4,.278E-5,0
NEMO-HD,2020-061F,2026-07-09T08:20:34.700640,15.45052973,.00011394,97.1909,252.0816,80.8812,279.2567,0,U,46277,999,32540,.16938028E-3,.7912E-4,0
SENTINEL-6A,2020-086A,2026-07-09T02:28:10.320672,12.80930079,.00078178,66.0415,89.5347,270.0066,90.0053,0,U,46984,999,26313,-.41416633E-4,-.71E-6,0
CAS500-1,2021-022A,2026-07-09T07:28:52.741920,15.20140657,.00045509,97.3875,85.1145,188.9009,171.2147,0,U,47932,999,29412,.20640592E-3,.4397E-4,0
GAOFEN-12 02,2021-026A,2026-07-09T06:17:04.006752,14.80313204,.00054507,97.9930,188.3530,148.1761,211.9781,0,U,48079,999,28502,.39217399E-4,.246E-5,0
PLEIADES NEO 3,2021-034A,2026-07-09T06:26:58.614144,14.81673238,.00013452,97.8936,264.7177,93.5930,266.5437,0,U,48268,999,28092,.14812536E-4,.65E-6,0
PLEIADES NEO 4,2021-073E,2026-07-09T07:15:35.063424,14.81671901,.00013238,97.8933,264.7475,93.3306,266.8058,0,U,49070,999,26464,.12212458E-3,.909E-5,0
LANDSAT 9,2021-088A,2026-07-08T18:12:45.328608,14.57112192,.00011723,98.2272,259.6744,89.8666,270.2667,0,U,49260,999,25414,.6032887E-4,.226E-5,0
CSG-2,2022-008A,2026-07-09T07:06:17.676288,14.82146548,.00015613,97.8899,13.5734,85.3891,274.7500,0,U,51444,999,23986,-.44271101E-4,-.405E-5,0
GAOFEN-12 03,2022-069A,2026-07-09T07:05:38.289984,14.80068036,.0002479,97.8250,77.6055,78.8173,281.3317,0,U,52912,999,21788,.12158434E-4,.42E-6,0
SWOT,2022-173A,2026-07-09T06:46:02.436960,14.00172000,.0000289,77.6105,5.4810,75.7094,284.4090,0,U,54754,999,18224,.10638592E-4,.13E-6,0
GAOFEN-12 04,2023-123A,2026-07-09T07:32:17.580768,14.79768478,.00037737,97.9107,108.0029,62.4033,297.7562,0,U,57654,999,15590,.95867597E-4,.67E-5,0
PARS 1,2024-039Q,2026-07-09T07:43:16.641696,15.46201256,.00104967,97.4833,171.9468,46.0523,314.1590,0,U,59065,999,13206,.18095592E-3,.8811E-4,0
RESURS-P 4,2024-061A,2026-07-09T06:31:44.229216,15.32258076,.00032135,97.2753,137.7884,98.6305,261.5301,0,U,59371,999,12714,.68335788E-4,.2052E-4,0
LEGION 1,2024-081A,2026-07-09T06:17:07.540512,15.16819235,.00077721,97.5011,267.8845,294.5232,65.5190,0,U,59625,999,12088,.11741213E-3,.2241E-4,0
LEGION 2,2024-081B,2026-07-09T07:00:45.493344,15.16798049,.00099193,97.5011,268.0114,256.7429,103.2698,0,U,59626,999,12089,.1379762E-3,.2645E-4,0
ALOS-4 (DAICHI-4),2024-123A,2026-07-09T06:35:14.581248,14.79471217,.0001606,97.9220,287.1334,98.2301,261.9093,0,U,60182,999,10914,.14074186E-3,.1E-4,0
LEGION 3,2024-146A,2026-07-09T06:32:52.112832,15.15631936,.00087089,45.0016,272.1323,303.2206,56.7838,0,U,60452,999,10537,.11879209E-3,.2034E-4,0
LEGION 4,2024-146B,2026-07-08T22:38:34.903392,15.16209060,.00114831,45.0026,5.7695,72.6816,287.5318,0,U,60453,999,10417,.15770132E-3,.2837E-4,0
SENTINEL-2C,2024-157A,2026-07-09T04:48:44.891712,14.30814617,.00009391,98.5685,264.6704,97.5512,262.5777,0,U,60989,999,9613,.3661567E-4,.52E-6,0
IONOSFERA-M 1,2024-199A,2026-07-09T06:37:35.257728,14.22758301,.00022144,98.7145,63.2122,80.6893,279.4535,0,U,61735,999,13084,.29617857E-4,.22E-6,0
